[{"OBJECT_NAME":"OBJECT J","OBJECT_ID":"2023-085J","EPOCH":"2026-03-09T22:47:59.920512","MEAN_MOTION":15.31507187,"ECCENTRICITY":0.00067028,"INCLINATION":97.4828,"RA_OF_ASC_NODE":180.1819,"ARG_OF_PERICENTER":41.7877,"MEAN_ANOMALY":318.3875,"EPHEMERIS_TYPE":0,"CLASSIFICATION_TYPE":"U","NORAD_CAT_ID":57012,"ELEMENT_SET_NO":999,"REV_AT_EPOCH":15156,"BSTAR":0.00064525349,"MEAN_MOTION_DOT":0.00019595,"MEAN_MOTION_DDOT":0},{"OBJECT_NAME":"STARLINK-30456","OBJECT_ID":"2023-148J","EPOCH":"2026-03-09T06:12:30.918816","MEAN_MOTION":15.3019051,"ECCENTRICITY":0.00011488,"INCLINATION":53.1621,"RA_OF_ASC_NODE":26.4758,"ARG_OF_PERICENTER":104.118,"MEAN_ANOMALY":255.9948,"EPHEMERIS_TYPE":0,"CLASSIFICATION_TYPE":"U","NORAD_CAT_ID":57943,"ELEMENT_SET_NO":999,"REV_AT_EPOCH":13835,"BSTAR":4.880448e-6,"MEAN_MOTION_DOT":-2.15e-6,"MEAN_MOTION_DDOT":0}]
